ONEWEB-0549             
1 56051U 23043F   25092.61197886 -.00000465  00000+0 -11569-2 0  9993
2 56051  87.9308 331.8368 0001626  68.4494 291.6813 13.21825722100022
ONEWEB-0550             
1 56052U 23043G   25092.59936511 -.00000275  00000+0 -69803-3 0  9991
2 56052  87.9306 331.8362 0001889  81.2438 278.8910 13.21824353100021
ONEWEB-0551             
1 56053U 23043H   25092.40301633  .00000105  00000+0  24572-3 0  9997
2 56053  87.9124 347.0632 0001776  69.8538 290.2784 13.15548964 98440
ONEWEB-0552             
1 56054U 23043J   25092.59306080  .00000036  00000+0  55818-4 0  9990
2 56054  87.9305 331.8467 0001976  73.5243 286.6108 13.21823428100021
ONEWEB-0553             
1 56055U 23043K   25092.55156279  .00000003  00000+0 -26385-4 0  9992
2 56055  87.9058 316.6166 0001636  97.6247 262.5069 13.16593763100993
ONEWEB-0554             
1 56056U 23043L   25092.91888061  .00000124  00000+0  29051-3 0  9999
2 56056  87.9059 316.5721 0002285  84.3439 275.7952 13.16593521101932
ONEWEB-0555             
1 56057U 23043M   25092.57689620 -.00000046  00000+0 -15283-3 0  9999
2 56057  87.9057 316.6058 0001656 104.6576 255.4739 13.16594424101890
ONEWEB-0557             
1 56058U 23043N   25092.59114076 -.00000008  00000+0 -55625-4 0  9993
2 56058  87.9054 316.6269 0002188 109.6510 250.4858 13.16593654100986
